TIANMU-1 08             
1 57400U 23101B   26066.00237819  .00000346  00000+0  14775-4 0  9993
2 57400  97.2717 118.7901 0006380 134.2174 225.9592 15.29204229146020
STARLINK-34093          
1 64015U 25101X   26068.14183799  .00038674  00000+0  14076-2 0  9996
2 64015  43.0048   0.8620 0001981 255.4344 104.6288 15.27578207 46978
